start=new Date('2022-06-20T00:00:00.000Z').valueOf();
sats=[{"REV_AT_EPOCH":"7078","OBJECT_TYPE":"PAYLOAD","EPOCH":"2022-06-19T14:30:08.179776","PERIAPSIS":"546.752","NORAD_CAT_ID":"47992","APOAPSIS":"547.925","MEAN_MOTION":"15.06359207","SEMIMAJOR_AXIS":"6925.474","OBJECT_ID":"2021-024R","SITE":"AFETR","CENTER_NAME":"EARTH","TLE_LINE2":"2 47992  53.0554 237.8799 0000847  67.6724 292.4355 15.06359207 70781","EPHEMERIS_TYPE":"0","RCS_SIZE":"LARGE","MEAN_ANOMALY":"292.4355","MEAN_MOTION_DOT":"-0.00007542","BSTAR":"-0.00048853000000","REF_FRAME":"TEME","GP_ID":"206447196","INCLINATION":"53.0554","DECAY_DATE":null,"PERIOD":"95.595","MEAN_ELEMENT_THEORY":"SGP4","FILE":"3497669","ARG_OF_PERICENTER":"67.6724","TLE_LINE1":"1 47992U 21024R   22170.60426134 -.00007542  00000-0 -48853-3 0  9999","ELEMENT_SET_NO":"999","RA_OF_ASC_NODE":"237.8799","COUNTRY_CODE":"US","TIME_SYSTEM":"UTC","OBJECT_NAME":"STARLINK-2229","LAUNCH_DATE":"2021-03-24","ECCENTRICITY":"0.00008470","MEAN_MOTION_DDOT":"0.0000000000000","CLASSIFICATION_TYPE":"U"},{"MEAN_MOTION":"15.06407367","SEMIMAJOR_AXIS":"6925.326","OBJECT_ID":"2021-024S","SITE":"AFETR","PERIAPSIS":"546.212","NORAD_CAT_ID":"47993","APOAPSIS":"548.170","EPOCH":"2022-06-19T21:02:52.073376","OBJECT_TYPE":"PAYLOAD","REV_AT_EPOCH":"6979","DECAY_DATE":null,"PERIOD":"95.592","INCLINATION":"53.0535","BSTAR":"0.00030862000000","GP_ID":"206424332","REF_FRAME":"TEME","TLE_LINE2":"2 47993  53.0535 276.5802 0001413  79.5088 280.6564 15.06407367 69792","CENTER_NAME":"EARTH","EPHEMERIS_TYPE":"0","RCS_SIZE":"LARGE","MEAN_ANOMALY":"280.6564","MEAN_MOTION_DOT":"0.00004319","RA_OF_ASC_NODE":"276.5802","ELEMENT_SET_NO":"999","FILE":"3497275","ARG_OF_PERICENTER":"79.5088","TLE_LINE1":"1 47993U 21024S   22170.87699159  .00004319  00000-0  30862-3 0  9996","MEAN_ELEMENT_THEORY":"SGP4","MEAN_MOTION_DDOT":"0.0000000000000","CLASSIFICATION_TYPE":"U","LAUNCH_DATE":"2021-03-24","ECCENTRICITY":"0.00014130","TIME_SYSTEM":"UTC","OBJECT_NAME":"STARLINK-2273","COUNTRY_CODE":"US"},{"OBJECT_NAME":"STARLINK-2290","TIME_SYSTEM":"UTC","COUNTRY_CODE":"US","CLASSIFICATION_TYPE":"U","MEAN_MOTION_DDOT":"0.0000000000000","LAUNCH_DATE":"2021-03-24","ECCENTRICITY":"0.00014410","ARG_OF_PERICENTER":"73.7414","TLE_LINE1":"1 47994U 21024T   22170.61574051  .00011818  00000-0  81052-3 0  9991","FILE":"3497669","MEAN_ELEMENT_THEORY":"SGP4","RA_OF_ASC_NODE":"292.7486","ELEMENT_SET_NO":"999","REF_FRAME":"TEME","GP_ID":"206446197","BSTAR":"0.00081052000000","MEAN_ANOMALY":"286.3734","MEAN_MOTION_DOT":"0.00011818","EPHEMERIS_TYPE":"0","RCS_SIZE":"LARGE","TLE_LINE2":"2 47994  53.0535 292.7486 0001441  73.7414 286.3734 15.06419106 70003","CENTER_NAME":"EARTH","PERIOD":"95.591","DECAY_DATE":null,"INCLINATION":"53.0535","EPOCH":"2022-06-19T14:46:39.980064","OBJECT_TYPE":"PAYLOAD","REV_AT_EPOCH":"7000","SITE":"AFETR","OBJECT_ID":"2021-024T","SEMIMAJOR_AXIS":"6925.290","MEAN_MOTION":"15.06419106","APOAPSIS":"548.153","NORAD_CAT_ID":"47994","PERIAPSIS":"546.157"},{"MEAN_ELEMENT_THEORY":"SGP4","TLE_LINE1":"1 47995U 21024U   22170.62452709  .00002228  00000-0  16844-3 0  9990","ARG_OF_PERICENTER":"72.1365","FILE":"3497669","ELEMENT_SET_NO":"999","RA_OF_ASC_NODE":"258.0188","COUNTRY_CODE":"US","TIME_SYSTEM":"UTC","OBJECT_NAME":"STARLINK-2309","LAUNCH_DATE":"2021-03-24","ECCENTRICITY":"0.00015720","MEAN_MOTION_DDOT":"0.0000000000000","CLASSIFICATION_TYPE":"U","REV_AT_EPOCH":"7050","EPOCH":"2022-06-19T14:59:19.140576","OBJECT_TYPE":"PAYLOAD","PERIAPSIS":"546.150","APOAPSIS":"548.328","NORAD_CAT_ID":"47995","OBJECT_ID":"2021-024U","SEMIMAJOR_AXIS":"6925.374","MEAN_MOTION":"15.06391668","SITE":"AFETR","RCS_SIZE":"LARGE","EPHEMERIS_TYPE":"0","CENTER_NAME":"EARTH","TLE_LINE2":"2 47995  53.0537 258.0188 0001572  72.1365 287.9795 15.06391668 70504","MEAN_ANOMALY":"287.9795","MEAN_MOTION_DOT":"0.00002228","REF_FRAME":"TEME","GP_ID":"206446445","BSTAR":"0.00016844000000","INCLINATION":"53.0537","DECAY_DATE":null,"PERIOD":"95.593"},{"RA_OF_ASC_NODE":"181.6786","ELEMENT_SET_NO":"999","ARG_OF_PERICENTER":"62.2076","TLE_LINE1":"1 47996U 21024V   22170.91667824  .00043430  00000-0  29177-2 0  9991","FILE":"3497669","MEAN_ELEMENT_THEORY":"SGP4","CLASSIFICATION_TYPE":"U","MEAN_MOTION_DDOT":"0.0000000000000","LAUNCH_DATE":"2021-03-24","ECCENTRICITY":"0.00015560","OBJECT_NAME":"STARLINK-2260","TIME_SYSTEM":"UTC","COUNTRY_CODE":"US","SITE":"AFETR","OBJECT_ID":"2021-024V","SEMIMAJOR_AXIS":"6925.391","MEAN_MOTION":"15.06386188","NORAD_CAT_ID":"47996","APOAPSIS":"548.333","PERIAPSIS":"546.178","EPOCH":"2022-06-19T22:00:00.999936","OBJECT_TYPE":"PAYLOAD","REV_AT_EPOCH":"130","PERIOD":"95.593","DECAY_DATE":null,"INCLINATION":"53.0533","GP_ID":"206447697","REF_FRAME":"TEME","BSTAR":"0.00291770000000","MEAN_MOTION_DOT":"0.00043430","MEAN_ANOMALY":"215.5955","RCS_SIZE":"LARGE","EPHEMERIS_TYPE":"0","TLE_LINE2":"2 47996  53.0533 181.6786 0001556  62.2076 215.5955 15.06386188  1305","CENTER_NAME":"EARTH"},{"MEAN_ELEMENT_THEORY":"SGP4","TLE_LINE1":"1 47997U 21024W   22170.72999753  .00009750  00000-0  67236-3 0  9996","ARG_OF_PERICENTER":"82.5772","FILE":"3497669","ELEMENT_SET_NO":"999","RA_OF_ASC_NODE":"292.2274","COUNTRY_CODE":"US","OBJECT_NAME":"STARLINK-2266","TIME_SYSTEM":"UTC","LAUNCH_DATE":"2021-03-24","ECCENTRICITY":"0.00015120","CLASSIFICATION_TYPE":"U","MEAN_MOTION_DDOT":"0.0000000000000","REV_AT_EPOCH":"7008","EPOCH":"2022-06-19T17:31:11.786592","OBJECT_TYPE":"PAYLOAD","NORAD_CAT_ID":"47997","APOAPSIS":"548.232","PERIAPSIS":"546.138","SITE":"AFETR","SEMIMAJOR_AXIS":"6925.320","OBJECT_ID":"2021-024W","MEAN_MOTION":"15.06409294","MEAN_MOTION_DOT":"0.00009750","MEAN_ANOMALY":"277.5389","EPHEMERIS_TYPE":"0","RCS_SIZE":"LARGE","CENTER_NAME":"EARTH","TLE_LINE2":"2 47997  53.0524 292.2274 0001512  82.5772 277.5389 15.06409294 70081","GP_ID":"206447944","REF_FRAME":"TEME","BSTAR":"0.00067236000000","INCLINATION":"53.0524","PERIOD":"95.592","DECAY_DATE":null},{"REV_AT_EPOCH":"7036","EPOCH":"2022-06-19T16:06:59.740128","OBJECT_TYPE":"PAYLOAD","PERIAPSIS":"546.225","APOAPSIS":"548.257","NORAD_CAT_ID":"47998","MEAN_MOTION":"15.06391030","OBJECT_ID":"2021-024X","SEMIMAJOR_AXIS":"6925.376","SITE":"AFETR","TLE_LINE2":"2 47998  53.0551 267.7315 0001467  68.0771 292.0373 15.06391030 70366","CENTER_NAME":"EARTH","RCS_SIZE":"LARGE","EPHEMERIS_TYPE":"0","MEAN_ANOMALY":"292.0373","MEAN_MOTION_DOT":"0.00003070","BSTAR":"0.00022496000000","REF_FRAME":"TEME","GP_ID":"206446697","INCLINATION":"53.0551","DECAY_DATE":null,"PERIOD":"95.593","MEAN_ELEMENT_THEORY":"SGP4","FILE":"3497669","ARG_OF_PERICENTER":"68.0771","TLE_LINE1":"1 47998U 21024X   22170.67152477  .00003070  00000-0  22496-3 0  9993","ELEMENT_SET_NO":"999","RA_OF_ASC_NODE":"267.7315","COUNTRY_CODE":"US","TIME_SYSTEM":"UTC","OBJECT_NAME":"STARLINK-2296","LAUNCH_DATE":"2021-03-24","ECCENTRICITY":"0.00014670","MEAN_MOTION_DDOT":"0.0000000000000","CLASSIFICATION_TYPE":"U"},{"OBJECT_ID":"2021-024Y","SEMIMAJOR_AXIS":"6925.387","MEAN_MOTION":"15.06387361","SITE":"AFETR","PERIAPSIS":"546.378","NORAD_CAT_ID":"47999","APOAPSIS":"548.127","OBJECT_TYPE":"PAYLOAD","EPOCH":"2022-06-19T10:08:38.546304","REV_AT_EPOCH":"7027","DECAY_DATE":null,"PERIOD":"95.593","INCLINATION":"53.0530","GP_ID":"206422939","REF_FRAME":"TEME","BSTAR":"0.00017147000000","EPHEMERIS_TYPE":"0","RCS_SIZE":"LARGE","CENTER_NAME":"EARTH","TLE_LINE2":"2 47999  53.0530 238.6146 0001263  75.0789 285.0340 15.06387361 70272","MEAN_ANOMALY":"285.0340","MEAN_MOTION_DOT":"0.00002273","RA_OF_ASC_NODE":"238.6146","ELEMENT_SET_NO":"999","ARG_OF_PERICENTER":"75.0789","TLE_LINE1":"1 47999U 21024Y   22170.42266836  .00002273  00000-0  17147-3 0  9993","FILE":"3497154","MEAN_ELEMENT_THEORY":"SGP4","MEAN_MOTION_DDOT":"0.0000000000000","CLASSIFICATION_TYPE":"U","LAUNCH_DATE":"2021-03-24","ECCENTRICITY":"0.00012630","TIME_SYSTEM":"UTC","OBJECT_NAME":"STARLINK-2218","COUNTRY_CODE":"US"},{"PERIAPSIS":"545.900","APOAPSIS":"548.426","NORAD_CAT_ID":"48000","OBJECT_ID":"2021-024Z","SEMIMAJOR_AXIS":"6925.298","MEAN_MOTION":"15.06416506","SITE":"AFETR","REV_AT_EPOCH":"7096","OBJECT_TYPE":"PAYLOAD","EPOCH":"2022-06-19T10:04:03.548064","INCLINATION":"53.0543","DECAY_DATE":null,"PERIOD":"95.591","RCS_SIZE":"LARGE","EPHEMERIS_TYPE":"0","CENTER_NAME":"EARTH","TLE_LINE2":"2 48000  53.0543 223.8281 0001824  53.1102 307.0054 15.06416506 70962","MEAN_ANOMALY":"307.0054","MEAN_MOTION_DOT":"0.00003325","REF_FRAME":"TEME","GP_ID":"206415389","BSTAR":"0.00024194000000","ELEMENT_SET_NO":"999","RA_OF_ASC_NODE":"223.8281","MEAN_ELEMENT_THEORY":"SGP4","ARG_OF_PERICENTER":"53.1102","TLE_LINE1":"1 48000U 21024Z   22170.41948551  .00003325  00000-0  24194-3 0  9996","FILE":"3497010","LAUNCH_DATE":"2021-03-24","ECCENTRICITY":"0.00018240","MEAN_MOTION_DDOT":"0.0000000000000","CLASSIFICATION_TYPE":"U","COUNTRY_CODE":"US","TIME_SYSTEM":"UTC","OBJECT_NAME":"STARLINK-2270"},{"ARG_OF_PERICENTER":"73.7369","TLE_LINE1":"1 48002U 21024AB  22170.64618966  .00004596  00000-0  32716-3 0  9997","FILE":"3497669","MEAN_ELEMENT_THEORY":"SGP4","RA_OF_ASC_NODE":"242.9244","ELEMENT_SET_NO":"999","TIME_SYSTEM":"UTC","OBJECT_NAME":"STARLINK-2265","COUNTRY_CODE":"US","MEAN_MOTION_DDOT":"0.0000000000000","CLASSIFICATION_TYPE":"U","LAUNCH_DATE":"2021-03-24","ECCENTRICITY":"0.00014440","OBJECT_TYPE":"PAYLOAD","EPOCH":"2022-06-19T15:30:30.786624","REV_AT_EPOCH":"7070","SEMIMAJOR_AXIS":"6925.325","OBJECT_ID":"2021-024AB","MEAN_MOTION":"15.06407540","SITE":"AFETR","PERIAPSIS":"546.190","APOAPSIS":"548.190","NORAD_CAT_ID":"48002","REF_FRAME":"TEME","GP_ID":"206447444","BSTAR":"0.00032716000000","RCS_SIZE":"LARGE","EPHEMERIS_TYPE":"0","CENTER_NAME":"EARTH","TLE_LINE2":"2 48002  53.0536 242.9244 0001444  73.7369 286.3779 15.06407540 70701","MEAN_ANOMALY":"286.3779","MEAN_MOTION_DOT":"0.00004596","DECAY_DATE":null,"PERIOD":"95.592","INCLINATION":"53.0536"}];
